CCSDS_OMM_VERS = 2.0
CREATION_DATE  = 
ORIGINATOR     = 

OBJECT_NAME    = STARLINK-36696
OBJECT_ID      = 2026-022D
CENTER_NAME    = EARTH
REF_FRAME      = TEME
TIME_SYSTEM    = UTC
MEAN_ELEMENT_THEORY = SGP/SGP4

EPOCH          = 2026-03-01T01:59:24.561888
MEAN_MOTION    = 15.75190240
ECCENTRICITY   = .0001436
INCLINATION    = 97.2837
RA_OF_ASC_NODE = 93.6291
ARG_OF_PERICENTER = 62.4928
MEAN_ANOMALY   = 297.6483

EPHEMERIS_TYPE = 0
CLASSIFICATION_TYPE = U
NORAD_CAT_ID   = 67651
ELEMENT_SET_NO = 999
REV_AT_EPOCH   = 419
BSTAR          = .81924E-3
MEAN_MOTION_DOT = .123854E-2
MEAN_MOTION_DDOT = 0

CCSDS_OMM_VERS = 2.0
CREATION_DATE  = 
ORIGINATOR     = 

OBJECT_NAME    = STARLINK-36699
OBJECT_ID      = 2026-022E
CENTER_NAME    = EARTH
REF_FRAME      = TEME
TIME_SYSTEM    = UTC
MEAN_ELEMENT_THEORY = SGP/SGP4

EPOCH          = 2026-03-01T01:58:23.687040
MEAN_MOTION    = 15.75205277
ECCENTRICITY   = .0001402
INCLINATION    = 97.2840
RA_OF_ASC_NODE = 93.6302
ARG_OF_PERICENTER = 83.5235
MEAN_ANOMALY   = 276.6190

EPHEMERIS_TYPE = 0
CLASSIFICATION_TYPE = U
NORAD_CAT_ID   = 67652
ELEMENT_SET_NO = 999
REV_AT_EPOCH   = 419
BSTAR          = .74231E-3
MEAN_MOTION_DOT = .112129E-2
MEAN_MOTION_DDOT = 0

CCSDS_OMM_VERS = 2.0
CREATION_DATE  = 
ORIGINATOR     = 

OBJECT_NAME    = STARLINK-36694
OBJECT_ID      = 2026-022F
CENTER_NAME    = EARTH
REF_FRAME      = TEME
TIME_SYSTEM    = UTC
MEAN_ELEMENT_THEORY = SGP/SGP4

EPOCH          = 2026-03-01T01:55:20.989056
MEAN_MOTION    = 15.75245609
ECCENTRICITY   = .0001707
INCLINATION    = 97.2830
RA_OF_ASC_NODE = 93.6326
ARG_OF_PERICENTER = 85.9625
MEAN_ANOMALY   = 274.1836

EPHEMERIS_TYPE = 0
CLASSIFICATION_TYPE = U
NORAD_CAT_ID   = 67653
ELEMENT_SET_NO = 999
REV_AT_EPOCH   = 419
BSTAR          = .97152E-3
MEAN_MOTION_DOT = .147667E-2
MEAN_MOTION_DDOT = 0

CCSDS_OMM_VERS = 2.0
CREATION_DATE  = 
ORIGINATOR     = 

OBJECT_NAME    = STARLINK-36620
OBJECT_ID      = 2026-022G
CENTER_NAME    = EARTH
REF_FRAME      = TEME
TIME_SYSTEM    = UTC
MEAN_ELEMENT_THEORY = SGP/SGP4

EPOCH          = 2026-03-01T01:54:50.448384
MEAN_MOTION    = 15.75210486
ECCENTRICITY   = .0001595
INCLINATION    = 97.2825
RA_OF_ASC_NODE = 93.6330
ARG_OF_PERICENTER = 44.4345
MEAN_ANOMALY   = 315.7047

EPHEMERIS_TYPE = 0
CLASSIFICATION_TYPE = U
NORAD_CAT_ID   = 67654
ELEMENT_SET_NO = 999
REV_AT_EPOCH   = 419
BSTAR          = .10565E-2
MEAN_MOTION_DOT = .160594E-2
MEAN_MOTION_DDOT = 0

CCSDS_OMM_VERS = 2.0
CREATION_DATE  = 
ORIGINATOR     = 

OBJECT_NAME    = STARLINK-36720
OBJECT_ID      = 2026-022H
CENTER_NAME    = EARTH
REF_FRAME      = TEME
TIME_SYSTEM    = UTC
MEAN_ELEMENT_THEORY = SGP/SGP4

EPOCH          = 2026-03-01T01:52:17.777856
MEAN_MOTION    = 15.75211310
ECCENTRICITY   = .0002449
INCLINATION    = 97.2837
RA_OF_ASC_NODE = 93.6359
ARG_OF_PERICENTER = 351.8833
MEAN_ANOMALY   = 8.2392

EPHEMERIS_TYPE = 0
CLASSIFICATION_TYPE = U
NORAD_CAT_ID   = 67655
ELEMENT_SET_NO = 999
REV_AT_EPOCH   = 419
BSTAR          = .80269E-3
MEAN_MOTION_DOT = .121436E-2
MEAN_MOTION_DDOT = 0

CCSDS_OMM_VERS = 2.0
CREATION_DATE  = 
ORIGINATOR     = 

OBJECT_NAME    = STARLINK-36688
OBJECT_ID      = 2026-022J
CENTER_NAME    = EARTH
REF_FRAME      = TEME
TIME_SYSTEM    = UTC
MEAN_ELEMENT_THEORY = SGP/SGP4

EPOCH          = 2026-03-01T01:51:16.764768
MEAN_MOTION    = 15.75225859
ECCENTRICITY   = .0001532
INCLINATION    = 97.2828
RA_OF_ASC_NODE = 93.6350
ARG_OF_PERICENTER = 37.6955
MEAN_ANOMALY   = 322.4417

EPHEMERIS_TYPE = 0
CLASSIFICATION_TYPE = U
NORAD_CAT_ID   = 67656
ELEMENT_SET_NO = 999
REV_AT_EPOCH   = 419
BSTAR          = .92094E-3
MEAN_MOTION_DOT = .139721E-2
MEAN_MOTION_DDOT = 0

CCSDS_OMM_VERS = 2.0
CREATION_DATE  = 
ORIGINATOR     = 

OBJECT_NAME    = STARLINK-36706
OBJECT_ID      = 2026-022K
CENTER_NAME    = EARTH
REF_FRAME      = TEME
TIME_SYSTEM    = UTC
MEAN_ELEMENT_THEORY = SGP/SGP4

EPOCH          = 2026-03-01T01:49:14.857824
MEAN_MOTION    = 15.75282105
ECCENTRICITY   = .0000854
INCLINATION    = 97.2834
RA_OF_ASC_NODE = 93.6385
ARG_OF_PERICENTER = 72.5049
MEAN_ANOMALY   = 287.6309

EPHEMERIS_TYPE = 0
CLASSIFICATION_TYPE = U
NORAD_CAT_ID   = 67657
ELEMENT_SET_NO = 999
REV_AT_EPOCH   = 419
BSTAR          = .36551E-3
MEAN_MOTION_DOT = .54958E-3
MEAN_MOTION_DDOT = 0

CCSDS_OMM_VERS = 2.0
CREATION_DATE  = 
ORIGINATOR     = 

OBJECT_NAME    = STARLINK-36701
OBJECT_ID      = 2026-022L
CENTER_NAME    = EARTH
REF_FRAME      = TEME
TIME_SYSTEM    = UTC
MEAN_ELEMENT_THEORY = SGP/SGP4

EPOCH          = 2026-03-01T01:47:43.677312
MEAN_MOTION    = 15.75187959
ECCENTRICITY   = .0002214
INCLINATION    = 97.2840
RA_OF_ASC_NODE = 93.6393
ARG_OF_PERICENTER = 80.3935
MEAN_ANOMALY   = 279.7580

EPHEMERIS_TYPE = 0
CLASSIFICATION_TYPE = U
NORAD_CAT_ID   = 67658
ELEMENT_SET_NO = 999
REV_AT_EPOCH   = 419
BSTAR          = .165E-2
MEAN_MOTION_DOT = .253401E-2
MEAN_MOTION_DDOT = 0

CCSDS_OMM_VERS = 2.0
CREATION_DATE  = 
ORIGINATOR     = 

OBJECT_NAME    = STARLINK-36642
OBJECT_ID      = 2026-022M
CENTER_NAME    = EARTH
REF_FRAME      = TEME
TIME_SYSTEM    = UTC
MEAN_ELEMENT_THEORY = SGP/SGP4

EPOCH          = 2026-03-01T01:46:12.116640
MEAN_MOTION    = 15.75198270
ECCENTRICITY   = .0001772
INCLINATION    = 97.2824
RA_OF_ASC_NODE = 93.6408
ARG_OF_PERICENTER = 0.8709
MEAN_ANOMALY   = 359.2559

EPHEMERIS_TYPE = 0
CLASSIFICATION_TYPE = U
NORAD_CAT_ID   = 67659
ELEMENT_SET_NO = 999
REV_AT_EPOCH   = 419
BSTAR          = .13263E-2
MEAN_MOTION_DOT = .202541E-2
MEAN_MOTION_DDOT = 0

CCSDS_OMM_VERS = 2.0
CREATION_DATE  = 
ORIGINATOR     = 

OBJECT_NAME    = STARLINK-36673
OBJECT_ID      = 2026-022N
CENTER_NAME    = EARTH
REF_FRAME      = TEME
TIME_SYSTEM    = UTC
MEAN_ELEMENT_THEORY = SGP/SGP4

EPOCH          = 2026-03-01T01:44:09.896928
MEAN_MOTION    = 15.75217064
ECCENTRICITY   = .0001655
INCLINATION    = 97.2841
RA_OF_ASC_NODE = 93.6423
ARG_OF_PERICENTER = 84.9031
MEAN_ANOMALY   = 275.2423

EPHEMERIS_TYPE = 0
CLASSIFICATION_TYPE = U
NORAD_CAT_ID   = 67660
ELEMENT_SET_NO = 999
REV_AT_EPOCH   = 419
BSTAR          = .10241E-2
MEAN_MOTION_DOT = .155613E-2
MEAN_MOTION_DDOT = 0

CCSDS_OMM_VERS = 2.0
CREATION_DATE  = 
ORIGINATOR     = 

OBJECT_NAME    = STARLINK-36674
OBJECT_ID      = 2026-022P
CENTER_NAME    = EARTH
REF_FRAME      = TEME
TIME_SYSTEM    = UTC
MEAN_ELEMENT_THEORY = SGP/SGP4

EPOCH          = 2026-03-01T01:42:08.071200
MEAN_MOTION    = 15.75251410
ECCENTRICITY   = .0002397
INCLINATION    = 97.2828
RA_OF_ASC_NODE = 93.6442
ARG_OF_PERICENTER = 91.6297
MEAN_ANOMALY   = 268.5242

EPHEMERIS_TYPE = 0
CLASSIFICATION_TYPE = U
NORAD_CAT_ID   = 67661
ELEMENT_SET_NO = 999
REV_AT_EPOCH   = 419
BSTAR          = .87578E-3
MEAN_MOTION_DOT = .132912E-2
MEAN_MOTION_DDOT = 0

CCSDS_OMM_VERS = 2.0
CREATION_DATE  = 
ORIGINATOR     = 

OBJECT_NAME    = STARLINK-36700
OBJECT_ID      = 2026-022Q
CENTER_NAME    = EARTH
REF_FRAME      = TEME
TIME_SYSTEM    = UTC
MEAN_ELEMENT_THEORY = SGP/SGP4

EPOCH          = 2026-03-01T01:39:05.200416
MEAN_MOTION    = 15.75254905
ECCENTRICITY   = .0001685
INCLINATION    = 97.2834
RA_OF_ASC_NODE = 93.6474
ARG_OF_PERICENTER = 107.9529
MEAN_ANOMALY   = 252.1920

EPHEMERIS_TYPE = 0
CLASSIFICATION_TYPE = U
NORAD_CAT_ID   = 67662
ELEMENT_SET_NO = 999
REV_AT_EPOCH   = 419
BSTAR          = .10194E-2
MEAN_MOTION_DOT = .155151E-2
MEAN_MOTION_DDOT = 0

